[{"OBJECT_NAME":"STARLINK-35390","OBJECT_ID":"2025-218F","EPOCH":"2026-03-09T15:16:29.674848","MEAN_MOTION":15.05633876,"ECCENTRICITY":0.0002391,"INCLINATION":97.6024,"RA_OF_ASC_NODE":292.9305,"ARG_OF_PERICENTER":89.4011,"MEAN_ANOMALY":270.749,"EPHEMERIS_TYPE":0,"CLASSIFICATION_TYPE":"U","NORAD_CAT_ID":65796,"ELEMENT_SET_NO":999,"REV_AT_EPOCH":2496,"BSTAR":0.00060034,"MEAN_MOTION_DOT":8.609e-5,"MEAN_MOTION_DDOT":0},{"OBJECT_NAME":"PEGASUS DEB","OBJECT_ID":"1994-029CY","EPOCH":"2026-03-09T05:13:06.117888","MEAN_MOTION":14.31816092,"ECCENTRICITY":0.03405003,"INCLINATION":81.2891,"RA_OF_ASC_NODE":137.9762,"ARG_OF_PERICENTER":84.6876,"MEAN_ANOMALY":331.5571,"EPHEMERIS_TYPE":0,"CLASSIFICATION_TYPE":"U","NORAD_CAT_ID":24051,"ELEMENT_SET_NO":999,"REV_AT_EPOCH":50238,"BSTAR":0.0015079585,"MEAN_MOTION_DOT":7.708e-5,"MEAN_MOTION_DDOT":0}]
